OBJECT_NAME,OBJECT_ID,EPOCH,MEAN_MOTION,ECCENTRICITY,INCLINATION,RA_OF_ASC_NODE,ARG_OF_PERICENTER,MEAN_ANOMALY,EPHEMERIS_TYPE,CLASSIFICATION_TYPE,NORAD_CAT_ID,ELEMENT_SET_NO,REV_AT_EPOCH,BSTAR,MEAN_MOTION_DOT,MEAN_MOTION_DDOT
IRIDIUM 154,2018-061F,2026-07-21T06:41:14.521920,14.34217461,.00023117,86.3938,42.5458,88.9077,271.2384,0,U,43574,999,41829,.1476802E-5,.24E-6,0
IRIDIUM 163,2018-061G,2026-07-21T01:12:26.479872,14.34218144,.00021117,86.3936,42.5554,87.0667,273.0771,0,U,43575,999,41823,.29982724E-4,.104E-5,0
IRIDIUM 156,2018-061H,2026-07-21T02:16:22.399680,14.34217326,.00021906,86.3936,42.5444,93.4013,266.7433,0,U,43576,999,41823,.42785523E-4,.14E-5,0
IRIDIUM 164,2018-061J,2026-07-21T01:48:58.494528,14.34217597,.00022172,86.3933,42.5931,88.4194,271.7255,0,U,43577,999,41827,-.7788896E-5,-.2E-7,0
IRIDIUM 159,2018-061K,2026-07-21T06:04:42.450240,14.34217497,.00019871,86.3932,42.4550,86.7660,273.3764,0,U,43578,999,41826,-.1594503E-5,.15E-6,0
IRIDIUM 180,2019-002A,2026-07-20T21:41:38.986080,14.34217120,.00020551,86.3994,339.5040,91.3332,268.8100,0,U,43922,999,39382,-.27627326E-4,-.58E-6,0
IRIDIUM 176,2019-002B,2026-07-21T03:25:51.655008,14.72254289,.00023467,86.6119,339.3426,91.8369,268.3117,0,U,43923,999,40424,.82591729E-4,.545E-5,0
IRIDIUM 168,2019-002C,2026-07-21T02:33:55.025568,14.34218265,.00022051,86.4001,339.4971,91.7359,268.4090,0,U,43924,999,39383,.53060048E-4,.168E-5,0
IRIDIUM 173,2019-002D,2026-07-20T21:14:14.908992,14.34217747,.00020221,86.3993,339.4777,92.8813,267.2614,0,U,43925,999,39378,-.14660696E-4,-.21E-6,0
IRIDIUM 169,2019-002E,2026-07-21T04:41:24.413280,14.38605050,.00020945,86.4229,10.9711,104.4926,255.6504,0,U,43926,999,39511,.40172651E-4,.143E-5,0
IRIDIUM 172,2019-002F,2026-07-20T21:05:06.945504,14.34218083,.00021886,86.3998,339.4881,92.1119,268.0328,0,U,43927,999,39379,.15457382E-4,.63E-6,0
IRIDIUM 175,2019-002G,2026-07-21T04:05:41.129088,14.43629289,.00055307,86.4504,276.3164,103.8477,256.3340,0,U,43928,999,40388,.53417595E-4,.201E-5,0
IRIDIUM 171,2019-002H,2026-07-20T22:18:11.035296,14.34217535,.00022665,86.4007,339.7768,95.6186,264.5268,0,U,43929,999,39379,.30185809E-4,.104E-5,0
IRIDIUM 170,2019-002J,2026-07-20T21:03:14.894208,14.72254419,.00021961,86.6118,339.4557,89.2238,270.9231,0,U,43930,999,40421,.74158018E-4,.492E-5,0
IRIDIUM 167,2019-002K,2026-07-20T22:09:02.962944,14.34217539,.00022694,86.3993,339.4924,97.8715,262.2738,0,U,43931,999,39379,-.6981634E-5,0,0
IRIDIUM 181,2023-068S,2026-07-21T01:52:07.065120,14.43309346,.00023531,86.4475,42.6168,83.7688,276.3781,0,U,56726,999,16732,.6175337E-4,.228E-5,0
IRIDIUM 177,2023-068T,2026-07-21T06:17:16.421568,14.80031193,.00022472,86.1987,312.6152,97.6140,262.5337,0,U,56727,999,17140,.94408419E-4,.741E-5,0
IRIDIUM 174,2023-068U,2026-07-20T20:45:17.723808,14.72259411,.00019406,86.6125,339.6116,93.0867,267.0572,0,U,56728,999,17097,.75044625E-4,.498E-5,0
IRIDIUM 178,2023-068V,2026-07-20T23:32:01.702464,14.80023580,.00022424,86.6542,11.2361,92.0759,268.0719,0,U,56729,999,17136,.72466204E-4,.574E-5,0
IRIDIUM 179,2023-068W,2026-07-21T01:01:41.295648,14.80024497,.00023931,86.6770,20.2889,94.1429,266.0066,0,U,56730,999,17137,.23242475E-4,.202E-5,0
