IRIDIUM 154             
1 43574U 18061F   26202.27864030  .00000024  00000+0  14768-5 0  9997
2 43574  86.3938  42.5458 0002311  88.9077 271.2384 14.34217461418290
IRIDIUM 163             
1 43575U 18061G   26202.05030648  .00000104  00000+0  29983-4 0  9997
2 43575  86.3936  42.5554 0002111  87.0667 273.0771 14.34218144418232
IRIDIUM 156             
1 43576U 18061H   26202.09470370  .00000140  00000+0  42786-4 0  9998
2 43576  86.3936  42.5444 0002190  93.4013 266.7433 14.34217326418239
IRIDIUM 164             
1 43577U 18061J   26202.07567702 -.00000002  00000+0 -77889-5 0  9995
2 43577  86.3933  42.5931 0002217  88.4194 271.7255 14.34217597418274
IRIDIUM 159             
1 43578U 18061K   26202.25326910  .00000015  00000+0 -15945-5 0  9998
2 43578  86.3932  42.4550 0001987  86.7660 273.3764 14.34217497418263
IRIDIUM 180             
1 43922U 19002A   26201.90392345 -.00000058  00000+0 -27627-4 0  9990
2 43922  86.3994 339.5040 0002055  91.3332 268.8100 14.34217120393823
IRIDIUM 176             
1 43923U 19002B   26202.14295897  .00000545  00000+0  82592-4 0  9993
2 43923  86.6119 339.3426 0002346  91.8369 268.3117 14.72254289404241
IRIDIUM 168             
1 43924U 19002C   26202.10688687  .00000168  00000+0  53060-4 0  9992
2 43924  86.4001 339.4971 0002205  91.7359 268.4090 14.34218265393833
IRIDIUM 173             
1 43925U 19002D   26201.88489478 -.00000021  00000+0 -14661-4 0  9998
2 43925  86.3993 339.4777 0002022  92.8813 267.2614 14.34217747393788
IRIDIUM 169             
1 43926U 19002E   26202.19542145  .00000143  00000+0  40173-4 0  9995
2 43926  86.4229  10.9711 0002094 104.4926 255.6504 14.38605050395115
IRIDIUM 172             
1 43927U 19002F   26201.87855261  .00000063  00000+0  15457-4 0  9994
2 43927  86.3998 339.4881 0002188  92.1119 268.0328 14.34218083393792
IRIDIUM 175             
1 43928U 19002G   26202.17061492  .00000201  00000+0  53418-4 0  9997
2 43928  86.4504 276.3164 0005530 103.8477 256.3340 14.43629289403881
IRIDIUM 171             
1 43929U 19002H   26201.92929439  .00000104  00000+0  30186-4 0  9993
2 43929  86.4007 339.7768 0002266  95.6186 264.5268 14.34217535393797
IRIDIUM 170             
1 43930U 19002J   26201.87725572  .00000492  00000+0  74158-4 0  9998
2 43930  86.6118 339.4557 0002196  89.2238 270.9231 14.72254419404211
IRIDIUM 167             
1 43931U 19002K   26201.92295096  .00000000  00000+0 -69816-5 0  9990
2 43931  86.3993 339.4924 0002269  97.8715 262.2738 14.34217539393790
IRIDIUM 181             
1 56726U 23068S   26202.07785955  .00000228  00000+0  61753-4 0  9990
2 56726  86.4475  42.6168 0002353  83.7688 276.3781 14.43309346167322
IRIDIUM 177             
1 56727U 23068T   26202.26199562  .00000741  00000+0  94408-4 0  9998
2 56727  86.1987 312.6152 0002247  97.6140 262.5337 14.80031193171401
IRIDIUM 174             
1 56728U 23068U   26201.86478847  .00000498  00000+0  75045-4 0  9995
2 56728  86.6125 339.6116 0001940  93.0867 267.0572 14.72259411170973
IRIDIUM 178             
1 56729U 23068V   26201.98057526  .00000574  00000+0  72466-4 0  9995
2 56729  86.6542  11.2361 0002242  92.0759 268.0719 14.80023580171360
IRIDIUM 179             
1 56730U 23068W   26202.04283907  .00000202  00000+0  23242-4 0  9995
2 56730  86.6770  20.2889 0002393  94.1429 266.0066 14.80024497171376
